{
    "links": {
        "self": "http://www.neowsapp.com/rest/v1/neo/3167369?api_key=iIulBulltgU6a56xZRHN4H3l9WmuAYTsLGpBGhQ2"
    },
    "id": "3167369",
    "neo_reference_id": "3167369",
    "name": "(2003 WY153)",
    "designation": "2003 WY153",
    "nasa_jpl_url": "http://ssd.jpl.nasa.gov/sbdb.cgi?sstr=3167369",
    "absolute_magnitude_h": 24.4,
    "estimated_diameter": {
        "kilometers": {
            "estimated_diameter_min": 0.0350392641,
            "estimated_diameter_max": 0.0783501764
        },
        "meters": {
            "estimated_diameter_min": 35.0392641108,
            "estimated_diameter_max": 78.3501764334
        },
        "miles": {
            "estimated_diameter_min": 0.0217723826,
            "estimated_diameter_max": 0.0486845275
        },
        "feet": {
            "estimated_diameter_min": 114.9582192654,
            "estimated_diameter_max": 257.0543928497
        }
    },
    "is_potentially_hazardous_asteroid": false,
    "close_approach_data": [
        {
            "close_approach_date": "2003-11-27",
            "close_approach_date_full": "2003-Nov-27 06:50",
            "epoch_date_close_approach": 1069915800000,
            "relative_velocity": {
                "kilometers_per_second": "7.1652438326",
                "kilometers_per_hour": "25794.8777973748",
                "miles_per_hour": "16027.9339291521"
            },
            "miss_distance": {
                "astronomical": "0.0309240131",
                "lunar": "12.0294410959",
                "kilometers": "4626166.491612097",
                "miles": "2874566.5624650586"
            },
            "orbiting_body": "Earth"
        }
    ],
    "orbital_data": {
        "orbit_id": "14",
        "orbit_determination_date": "2017-04-06 09:13:29",
        "first_observation_date": "2003-11-29",
        "last_observation_date": "2003-12-17",
        "data_arc_in_days": 18,
        "observations_used": 48,
        "orbit_uncertainty": "8",
        "minimum_orbit_intersection": ".0293647",
        "jupiter_tisserand_invariant": "3.219",
        "epoch_osculation": "2452979.5",
        "eccentricity": ".5892093423477693",
        "semi_major_axis": "2.470838953774872",
        "inclination": "1.170431426356263",
        "ascending_node_longitude": "210.9014100495648",
        "orbital_period": "1418.61675919085",
        "perihelion_distance": "1.014997558773929",
        "perihelion_argument": "211.3544711643949",
        "aphelion_distance": "3.926680348775814",
        "perihelion_time": "2452969.121366297459",
        "mean_anomaly": "2.633768499285088",
        "mean_motion": ".253768325848157",
        "equinox": "J2000",
        "orbit_class": {
            "orbit_class_type": "APO",
            "orbit_class_description": "Near-Earth asteroid orbits which cross the Earth’s orbit similar to that of 1862 Apollo",
            "orbit_class_range": "a (semi-major axis) > 1.0 AU; q (perihelion) < 1.017 AU"
        }
    },
    "is_sentry_object": false
}